{
  "site":[
    {
      "addr1":"서울특별시 종로구 평창30길 28",
      "areacode":"1",
      "contentid":"129854",
      "contenttypeid": "14",
      "firstimage":"http://tong.visitkorea.or.kr/cms/resource/19/1570619_image2_1.jpg",
      "title":"가나아트센터"
    },
    {
      "addr1":"서울특별시 강남구 언주로167길 35",
      "areacode":"1",
      "contentid":"2869760",
      "contenttypeid": "39",
      "firstimage":"http://tong.visitkorea.or.kr/cms/resource/54/2869754_image2_1.JPG",
      "title":"가담"
    },
    {
      "addr1":"서울특별시 송파구 충민로 66",
      "areacode":"1",
      "contentid":"732484",
      "contenttypeid": "38",
      "firstimage":"http://tong.visitkorea.or.kr/cms/resource/78/1920578_image2_1.jpg",
      "title":"가든파이브라이프"
    },
    {
      "addr1":"서울특별시 종로구 창경궁로 296-12",
      "areacode":"1",
      "contentid":"130233",
      "contenttypeid": "14",
      "firstimage": "http://tong.visitkorea.or.kr/cms/resource/38/1894738_image2_1.jpg",
      "title":"가톨릭대학교 성신교정도서관"
    },
    {
      "addr1":"서울특별시 송파구 양재대로 932",
      "areacode":"1",
      "contentid":"132215",
      "contenttypeid": "38",
      "firstimage": "http://tong.visitkorea.or.kr/cms/resource/84/1920584_image2_1.jpg",
      "title":"가락농수산물종합도매시장"
    },
    {
      "addr1":"서울특별시 양천구 신정동 162-56",
      "areacode":"1",
      "contentid":"1116925",
      "contenttypeid": "12",
      "firstimage": "http://tong.visitkorea.or.kr/cms/resource/62/2612062_image2_1.bmp",
      "title":"갈산근린공원"
    },
    {
      "addr1":"인천광역시 강화군 강화읍 해안동로1366번길 18",
      "areacode":"2",
      "contentid":"1254680",
      "contenttypeid": "12",
      "firstimage": "http://tong.visitkorea.or.kr/cms/resource/72/1579072_image2_1.jpg",
      "title":"갑곶돈대"
    },
    {
      "addr1":"인천광역시 강화군 하점면 부근리",
      "areacode":"2",
      "contentid":"125565",
      "contenttypeid": "12",
      "firstimage": "http://tong.visitkorea.or.kr/cms/resource/77/1876577_image2_1.jpg",
      "title":"강화 고인돌 유적"
    },
    {
      "addr1":"대전광역시 유성구 현충원로 251",
      "areacode":"3",
      "contentid":"126003",
      "contenttypeid": "12",
      "firstimage": "http://tong.visitkorea.or.kr/cms/resource/25/2661825_image2_1.JPG",
      "title":"국립대전현충원 보훈둘레길"
    },
    {
      "addr1":"대구광역시 달서구 달구벌대로 1095",
      "areacode":"4",
      "contentid":"129826",
      "contenttypeid": "14",
      "firstimage": "http://tong.visitkorea.or.kr/cms/resource/24/1889024_image2_1.jpg",
      "title":"계명대학교 행소박물관"
    },
    {
      "addr1":"경상남도 합천군 가야면 가야산로 1783",
      "areacode":"36",
      "contentid":"2414679",
      "contenttypeid": "12",
      "firstimage": "http://tong.visitkorea.or.kr/cms/resource/49/1963749_image2_1.jpg",
      "title":"가야산 소리길"
    },
    {
      "addr1":"제주특별자치도 서귀포시 삼달신풍로 126-5",
      "areacode":"39",
      "contentid":"2638440",
      "contenttypeid": "14",
      "firstimage": "http://tong.visitkorea.or.kr/cms/resource/99/2639199_image2_1.jpg",
      "title":"고흐의정원"
    }
  ]
}